start=new Date('2022-06-27T00:00:00.000Z').valueOf();
sats=[{"GP_ID":"206926118","MEAN_MOTION_DOT":"-0.00000108","CLASSIFICATION_TYPE":"U","MEAN_ELEMENT_THEORY":"SGP4","ARG_OF_PERICENTER":"74.6572","SITE":"AFETR","PERIAPSIS":"546.194","TLE_LINE1":"1 47624U 21012E   22177.76830462 -.00000108  00000-0  11617-4 0  9994","NORAD_CAT_ID":"47624","DECAY_DATE":null,"ECCENTRICITY":"0.00015060","APOAPSIS":"548.280","TIME_SYSTEM":"UTC","OBJECT_NAME":"STARLINK-1669","EPOCH":"2022-06-26T18:26:21.519168","MEAN_MOTION":"15.06392348","INCLINATION":"53.0564","BSTAR":"0.00001161700000","REV_AT_EPOCH":"7651","SEMIMAJOR_AXIS":"6925.372","RA_OF_ASC_NODE":"0.6440","MEAN_ANOMALY":"285.4583","PERIOD":"95.593","RCS_SIZE":"LARGE","OBJECT_TYPE":"PAYLOAD","LAUNCH_DATE":"2021-02-16","REF_FRAME":"TEME","ELEMENT_SET_NO":"999","COUNTRY_CODE":"US","TLE_LINE2":"2 47624  53.0564   0.6440 0001506  74.6572 285.4583 15.06392348 76510","FILE":"3503441","MEAN_MOTION_DDOT":"0.0000000000000","OBJECT_ID":"2021-012E","EPHEMERIS_TYPE":"0","CENTER_NAME":"EARTH"},{"APOAPSIS":"548.179","TIME_SYSTEM":"UTC","ECCENTRICITY":"0.00013910","MEAN_MOTION":"15.06399276","EPOCH":"2022-06-26T20:03:10.739808","OBJECT_NAME":"STARLINK-1704","MEAN_MOTION_DOT":"-0.00000453","GP_ID":"206899034","NORAD_CAT_ID":"47625","DECAY_DATE":null,"TLE_LINE1":"1 47625U 21012F   22177.83554097 -.00000453  00000-0 -11510-4 0  9996","SITE":"AFETR","ARG_OF_PERICENTER":"77.9757","PERIAPSIS":"546.252","CLASSIFICATION_TYPE":"U","MEAN_ELEMENT_THEORY":"SGP4","TLE_LINE2":"2 47625  53.0550  20.3193 0001391  77.9757 282.1388 15.06399276 75718","COUNTRY_CODE":"US","FILE":"3503210","ELEMENT_SET_NO":"999","REF_FRAME":"TEME","LAUNCH_DATE":"2021-02-16","EPHEMERIS_TYPE":"0","CENTER_NAME":"EARTH","OBJECT_ID":"2021-012F","MEAN_MOTION_DDOT":"0.0000000000000","RA_OF_ASC_NODE":"20.3193","REV_AT_EPOCH":"7571","SEMIMAJOR_AXIS":"6925.351","BSTAR":"-0.00001151000000","INCLINATION":"53.0550","OBJECT_TYPE":"PAYLOAD","RCS_SIZE":"LARGE","PERIOD":"95.592","MEAN_ANOMALY":"282.1388"},{"CENTER_NAME":"EARTH","EPHEMERIS_TYPE":"0","OBJECT_ID":"2021-012G","MEAN_MOTION_DDOT":"0.0000000000000","ELEMENT_SET_NO":"999","TLE_LINE2":"2 47626  53.0559  20.1061 0001459  74.9767 285.1383 15.06392061 76234","COUNTRY_CODE":"US","FILE":"3503441","REF_FRAME":"TEME","LAUNCH_DATE":"2021-02-16","RCS_SIZE":"LARGE","OBJECT_TYPE":"PAYLOAD","PERIOD":"95.593","MEAN_ANOMALY":"285.1383","REV_AT_EPOCH":"7623","SEMIMAJOR_AXIS":"6925.373","RA_OF_ASC_NODE":"20.1061","BSTAR":"0.00003301500000","INCLINATION":"53.0559","OBJECT_NAME":"STARLINK-1761","EPOCH":"2022-06-26T21:18:51.220512","MEAN_MOTION":"15.06392061","ECCENTRICITY":"0.00014590","APOAPSIS":"548.248","TIME_SYSTEM":"UTC","DECAY_DATE":null,"NORAD_CAT_ID":"47626","PERIAPSIS":"546.227","SITE":"AFETR","ARG_OF_PERICENTER":"74.9767","TLE_LINE1":"1 47626U 21012G   22177.88809283  .00000210  00000-0  33015-4 0  9995","CLASSIFICATION_TYPE":"U","MEAN_ELEMENT_THEORY":"SGP4","GP_ID":"206925140","MEAN_MOTION_DOT":"0.00000210"},{"GP_ID":"206899980","MEAN_MOTION_DOT":"0.00002873","DECAY_DATE":null,"NORAD_CAT_ID":"47627","PERIAPSIS":"546.084","SITE":"AFETR","ARG_OF_PERICENTER":"59.0929","TLE_LINE1":"1 47627U 21012H   22177.76598773  .00002873  00000-0  21166-3 0  9992","CLASSIFICATION_TYPE":"U","MEAN_ELEMENT_THEORY":"SGP4","ECCENTRICITY":"0.00015810","APOAPSIS":"548.274","TIME_SYSTEM":"UTC","EPOCH":"2022-06-26T18:23:01.339872","OBJECT_NAME":"STARLINK-1972","MEAN_MOTION":"15.06411152","SEMIMAJOR_AXIS":"6925.314","REV_AT_EPOCH":"7702","RA_OF_ASC_NODE":"285.6280","BSTAR":"0.00021166000000","INCLINATION":"53.0552","RCS_SIZE":"LARGE","OBJECT_TYPE":"PAYLOAD","PERIOD":"95.591","MEAN_ANOMALY":"301.0215","ELEMENT_SET_NO":"999","TLE_LINE2":"2 47627  53.0552 285.6280 0001581  59.0929 301.0215 15.06411152 77022","FILE":"3503258","COUNTRY_CODE":"US","REF_FRAME":"TEME","LAUNCH_DATE":"2021-02-16","CENTER_NAME":"EARTH","EPHEMERIS_TYPE":"0","OBJECT_ID":"2021-012H","MEAN_MOTION_DDOT":"0.0000000000000"},{"ELEMENT_SET_NO":"999","TLE_LINE2":"2 47628  53.0564  20.2235 0001693  66.7427 293.3740 15.06396142 75712","COUNTRY_CODE":"US","FILE":"3503258","REF_FRAME":"TEME","LAUNCH_DATE":"2021-02-16","EPHEMERIS_TYPE":"0","CENTER_NAME":"EARTH","OBJECT_ID":"2021-012J","MEAN_MOTION_DDOT":"0.0000000000000","SEMIMAJOR_AXIS":"6925.360","REV_AT_EPOCH":"7571","RA_OF_ASC_NODE":"20.2235","BSTAR":"0.00003692400000","INCLINATION":"53.0564","RCS_SIZE":"LARGE","OBJECT_TYPE":"PAYLOAD","PERIOD":"95.592","MEAN_ANOMALY":"293.3740","ECCENTRICITY":"0.00016930","TIME_SYSTEM":"UTC","APOAPSIS":"548.398","EPOCH":"2022-06-26T20:35:01.777344","OBJECT_NAME":"STARLINK-1973","MEAN_MOTION":"15.06396142","GP_ID":"206900489","MEAN_MOTION_DOT":"0.00000268","NORAD_CAT_ID":"47628","DECAY_DATE":null,"SITE":"AFETR","ARG_OF_PERICENTER":"66.7427","PERIAPSIS":"546.053","TLE_LINE1":"1 47628U 21012J   22177.85765946  .00000268  00000-0  36924-4 0  9996","MEAN_ELEMENT_THEORY":"SGP4","CLASSIFICATION_TYPE":"U"},{"MEAN_MOTION":"15.06398041","EPOCH":"2022-06-26T12:12:08.752032","OBJECT_NAME":"STARLINK-1974","APOAPSIS":"548.260","TIME_SYSTEM":"UTC","ECCENTRICITY":"0.00015030","TLE_LINE1":"1 47629U 21012K   22177.50843463  .00001102  00000-0  92871-4 0  9991","PERIAPSIS":"546.179","SITE":"AFETR","ARG_OF_PERICENTER":"75.8129","NORAD_CAT_ID":"47629","DECAY_DATE":null,"CLASSIFICATION_TYPE":"U","MEAN_ELEMENT_THEORY":"SGP4","MEAN_MOTION_DOT":"0.00001102","GP_ID":"206894058","OBJECT_ID":"2021-012K","EPHEMERIS_TYPE":"0","CENTER_NAME":"EARTH","MEAN_MOTION_DDOT":"0.0000000000000","COUNTRY_CODE":"US","TLE_LINE2":"2 47629  53.0559 261.8020 0001503  75.8129 284.3027 15.06398041 77846","FILE":"3503181","ELEMENT_SET_NO":"999","LAUNCH_DATE":"2021-02-16","REF_FRAME":"TEME","OBJECT_TYPE":"PAYLOAD","RCS_SIZE":"LARGE","MEAN_ANOMALY":"284.3027","PERIOD":"95.592","RA_OF_ASC_NODE":"261.8020","REV_AT_EPOCH":"7784","SEMIMAJOR_AXIS":"6925.355","INCLINATION":"53.0559","BSTAR":"0.00009287100000"},{"MEAN_MOTION":"15.06390063","OBJECT_NAME":"STARLINK-1983","EPOCH":"2022-06-26T19:08:50.114400","APOAPSIS":"548.410","TIME_SYSTEM":"UTC","ECCENTRICITY":"0.00016840","CLASSIFICATION_TYPE":"U","MEAN_ELEMENT_THEORY":"SGP4","DECAY_DATE":null,"NORAD_CAT_ID":"47630","TLE_LINE1":"1 47630U 21012L   22177.79780225  .00001396  00000-0  11266-3 0  9993","SITE":"AFETR","PERIAPSIS":"546.078","ARG_OF_PERICENTER":"55.0442","MEAN_MOTION_DOT":"0.00001396","GP_ID":"206925639","MEAN_MOTION_DDOT":"0.0000000000000","EPHEMERIS_TYPE":"0","CENTER_NAME":"EARTH","OBJECT_ID":"2021-012L","REF_FRAME":"TEME","LAUNCH_DATE":"2021-02-16","TLE_LINE2":"2 47630  53.0566   0.5864 0001684  55.0442 305.0705 15.06390063 76487","FILE":"3503441","COUNTRY_CODE":"US","ELEMENT_SET_NO":"999","PERIOD":"95.593","MEAN_ANOMALY":"305.0705","OBJECT_TYPE":"PAYLOAD","RCS_SIZE":"LARGE","BSTAR":"0.00011266000000","INCLINATION":"53.0566","RA_OF_ASC_NODE":"0.5864","SEMIMAJOR_AXIS":"6925.379","REV_AT_EPOCH":"7648"},{"OBJECT_TYPE":"PAYLOAD","RCS_SIZE":"LARGE","MEAN_ANOMALY":"296.6927","PERIOD":"95.592","RA_OF_ASC_NODE":"285.8385","REV_AT_EPOCH":"7752","SEMIMAJOR_AXIS":"6925.355","INCLINATION":"53.0544","BSTAR":"0.00003913500000","OBJECT_ID":"2021-012N","EPHEMERIS_TYPE":"0","CENTER_NAME":"EARTH","MEAN_MOTION_DDOT":"0.0000000000000","TLE_LINE2":"2 47632  53.0544 285.8385 0001353  63.4200 296.6927 15.06398015 77521","FILE":"3503441","COUNTRY_CODE":"US","ELEMENT_SET_NO":"999","LAUNCH_DATE":"2021-02-16","REF_FRAME":"TEME","TLE_LINE1":"1 47632U 21012N   22177.72450613  .00000301  00000-0  39135-4 0  9994","ARG_OF_PERICENTER":"63.4200","SITE":"AFETR","PERIAPSIS":"546.283","NORAD_CAT_ID":"47632","DECAY_DATE":null,"CLASSIFICATION_TYPE":"U","MEAN_ELEMENT_THEORY":"SGP4","MEAN_MOTION_DOT":"0.00000301","GP_ID":"206925891","MEAN_MOTION":"15.06398015","OBJECT_NAME":"STARLINK-1992","EPOCH":"2022-06-26T17:23:17.329632","TIME_SYSTEM":"UTC","APOAPSIS":"548.157","ECCENTRICITY":"0.00013530"},{"MEAN_MOTION":"15.06404077","OBJECT_NAME":"STARLINK-2009","EPOCH":"2022-06-26T21:01:34.087008","TIME_SYSTEM":"UTC","APOAPSIS":"548.211","ECCENTRICITY":"0.00014580","NORAD_CAT_ID":"47633","DECAY_DATE":null,"TLE_LINE1":"1 47633U 21012P   22177.87608897  .00001867  00000-0  14416-3 0  9992","SITE":"AFETR","ARG_OF_PERICENTER":"61.1759","PERIAPSIS":"546.191","MEAN_ELEMENT_THEORY":"SGP4","CLASSIFICATION_TYPE":"U","MEAN_MOTION_DOT":"0.00001867","GP_ID":"206903446","CENTER_NAME":"EARTH","EPHEMERIS_TYPE":"0","OBJECT_ID":"2021-012P","MEAN_MOTION_DDOT":"0.0000000000000","TLE_LINE2":"2 47633  53.0561  20.1716 0001458  61.1759 298.9377 15.06404077 75729","COUNTRY_CODE":"US","FILE":"3503377","ELEMENT_SET_NO":"999","REF_FRAME":"TEME","LAUNCH_DATE":"2021-02-16","OBJECT_TYPE":"PAYLOAD","RCS_SIZE":"LARGE","PERIOD":"95.592","MEAN_ANOMALY":"298.9377","RA_OF_ASC_NODE":"20.1716","SEMIMAJOR_AXIS":"6925.336","REV_AT_EPOCH":"7572","BSTAR":"0.00014416000000","INCLINATION":"53.0561"},{"OBJECT_NAME":"STARLINK-2010","EPOCH":"2022-06-26T20:25:46.312608","MEAN_MOTION":"15.06397202","ECCENTRICITY":"0.00014960","TIME_SYSTEM":"UTC","APOAPSIS":"548.258","MEAN_ELEMENT_THEORY":"SGP4","CLASSIFICATION_TYPE":"U","ARG_OF_PERICENTER":"73.6841","SITE":"AFETR","PERIAPSIS":"546.186","TLE_LINE1":"1 47634U 21012Q   22177.85123047  .00000888  00000-0  78517-4 0  9995","NORAD_CAT_ID":"47634","DECAY_DATE":null,"GP_ID":"206903458","MEAN_MOTION_DOT":"0.00000888","MEAN_MOTION_DDOT":"0.0000000000000","OBJECT_ID":"2021-012Q","CENTER_NAME":"EARTH","EPHEMERIS_TYPE":"0","LAUNCH_DATE":"2021-02-16","REF_FRAME":"TEME","ELEMENT_SET_NO":"999","TLE_LINE2":"2 47634  53.0565  20.2564 0001496  73.6841 286.4312 15.06397202 75719","COUNTRY_CODE":"US","FILE":"3503377","MEAN_ANOMALY":"286.4312","PERIOD":"95.592","RCS_SIZE":"LARGE","OBJECT_TYPE":"PAYLOAD","INCLINATION":"53.0565","BSTAR":"0.00007851700000","SEMIMAJOR_AXIS":"6925.357","REV_AT_EPOCH":"7571","RA_OF_ASC_NODE":"20.2564"}];
